ONEWEB-0628             
1 55169U 23004AF  25062.56330754  .00000018  00000+0  14009-4 0  9999
2 55169  87.8805  84.3197 0001314 110.5028 249.6241 13.12445228106302
ONEWEB-0629             
1 55170U 23004AG  25062.53706162  .00000008  00000+0 -11600-4 0  9992
2 55170  87.9017  99.6246 0001959 108.1068 252.0277 13.17649122105609
ONEWEB-0631             
1 55171U 23004AH  25062.51498416  .00000051  00000+0  96652-4 0  9998
2 55171  87.9056  69.0188 0001693  70.8953 289.2363 13.18686931107646
ONEWEB-0709             
1 55172U 23004AJ  25062.52956819  .00000132  00000+0  33666-3 0  9991
2 55172  87.8840 114.9274 0002239  74.1125 286.0250 13.11415627104189
ONEWEB-0710             
1 55173U 23004AK  25062.55140669 -.00000009  00000+0 -57524-4 0  9998
2 55173  87.9020  99.6464 0001791  96.7997 263.3339 13.17647898105607
ONEWEB-0711             
1 55174U 23004AL  25062.57702750  .00000205  00000+0  54117-3 0  9996
2 55174  87.8841 114.8857 0001183 113.8630 246.2622 13.11420198104154
ONEWEB-0713             
1 55175U 23004AM  25062.59569578  .00000497  00000+0  13662-2 0  9990
2 55175  87.8839 114.8902 0001617 103.2370 256.8938 13.11416363104144
ONEWEB-0715             
1 55176U 23004AN  25062.59061122  .00000540  00000+0  14874-2 0  9998
2 55176  87.8840 114.8912 0001800  88.1266 272.0068 13.11417715104187
